#dP2021  2 27  0  0  0.00000000      97 __u+U IGS14 FIT  IAC
## 2146 518400.00000000   900.00000000 59272 0.0000000000000
+  124   C01C02C03C04C05C06C07C08C09C10C11C12C13C14C16C19C20
+        C21C22C23C24C25C26C27C28C29C30C32C33C34C35C36C37C38
+        C39C40C41C42C43C44C45C46C60E01E02E03E04E05E07E08E09
+        E11E12E13E14E15E18E19E21E24E25E26E27E30E31E33E36G01
+        G02G03G04G05G06G07G08G09G10G11G12G13G14G15G16G17G18
+        G19G20G21G22G23G24G25G26G27G28G29G30G31G32J01J02J03
+        J07R01R02R03R04R05R07R08R09R11R12R13R14R15R16R17R18
+        R19R20R21R22R24  0  0  0  0  0  0  0  0  0  0  0  0
++        13 12 14 13 13  9  9  9  9  8  8  8  8  8  9  7  7
++         7  7  7  7  7  7  7  7  7  7  7  7  7  8  7  7  8
++         8  8  7  8  7  8  8  7 13  4  4  4  4  4  4  4  4
++         4  4  4  5  5  5  4  4  4  4  4  4  4  4  4  4  3
++         4  3  4  4  3  4  4  3  3  4  3  4  3  4  4  3  4
++         3  3  3  3  4  3  3  4  4  3  4  4  4  3  8  8  8
++        14  7  5  5  5  5  5  5  6  7  5  7  5  6  7  5  6
++         8  7  5  7  5  0  0  0  0  0  0  0  0  0  0  0  0
%c M  cc GPS ccc cccc cccc cccc cccc ccccc ccccc ccccc ccccc
%c cc cc ccc ccc cccc cccc cccc cccc ccccc ccccc ccccc ccccc
%f  1.2500000  1.025000000  0.00000000000  0.000000000000000
%f  0.0000000  0.000000000  0.00000000000  0.000000000000000
%i    0    0    0    0      0      0      0      0         0
%i    0    0    0    0      0      0      0      0         0
/* INFORMATION & ANALYSIS CENTER (IAC)            FINAL DATA
/* S/V CLOCKS ARE ALIGNED TO GNSS TIME                      
/* G:C1WC2W R:C1PC2P E:C1XC5X C:C2IC6I J:C1CC2S             
/* PCV:IGS14_2134 OL/AL:FES2004  NONE     YN ORB:CoN CLK:CoN
*  2021 02 27 14 45  0.00000000
PC01 -34318.234159  24470.139775   -136.942640   -701.920281
PC02   4285.192365  41958.215750    376.975778    479.291107
PC03 -14798.700359  39447.347820    980.246976   -429.199207
PC04 -39618.171411  14404.583161    589.051724    -91.752129
PC05  21827.520870  36067.959687    205.371858   -841.195732
PC06 -23460.336104  25696.998853 -23687.164455    130.035045
PC07 -14053.292749  37523.289050 -11992.522493   -368.233205
PC08  -7199.431567  21404.107707  35763.254943   -907.359854
PC09  -8218.216593  26020.893301 -31972.131678    703.884730
PC10  -4220.778724  41707.779951    323.148025    -79.607558
PC11   1717.315047  15244.036351  23375.822510   -898.346543
PC12 -17925.271684  14037.804162  16165.196979    828.053343
PC13   6715.934887  29660.291676  29422.486461    159.347940
PC14  -1374.220941  25907.354410 -10180.116938    276.846962
PC16 -19840.964515  26257.778123 -26400.555556   -712.978049
PC19  -5779.034150 -20868.288691  17639.495427    743.306798
PC20   7238.836171 -26839.631270   2631.939972   -920.994389
PC21 -16590.983640  16948.476296  14708.936743   -859.050508
PC22 -15813.089473  -2665.474073  22841.965050   -895.902384
PC23  21922.431284  11534.137058  12854.600259   -875.986666
PC24   -389.458967  20473.451347 -18985.034361   -770.063082
PC25  16370.718326  22294.059545  -3806.068262   -948.456326
PC26 -14848.986168   7421.522423 -22437.163588    942.521420
PC27  24749.256486 -10019.523947  -8090.442419    490.336296
PC28  26130.281813   2110.840496   9573.808005   -104.455357
PC29 -12663.926528 -12487.668034 -21510.214436    358.161594
PC30   8782.847424 -16529.103645 -20690.559929    448.387110
PC32  16455.211167 -17105.632300 -14664.615167   -901.959159
PC33   5842.833916  20883.979969 -17546.589394   -953.892845
PC34  -8118.252665  16579.714721  20930.478730   -730.404388
PC35 -26107.524501  -1426.566256  -9809.571213   -398.189886
PC36 -15613.621914 -22755.038396   4143.479382   -749.002994
PC37  15613.405543  -6219.794593  22291.301535   -869.497695
PC38  -5960.205922  24692.446738  33703.570419    132.683119
PC39 -17952.350608  27561.953367 -26452.080779     28.879622
PC40 -10473.385453  40701.343101  -2268.534765    135.847615
PC41  15754.590518   2903.633871 -22799.430326   -929.895366
PC42  -7717.798890  26741.880911  -1874.918211   -899.982274
PC43  12105.513652  12872.433582  21589.271840   -616.921122
PC44 -24545.448070  10764.036288   7838.557918     60.288529
PC45 -21885.990108 -11442.715897 -12970.235590    373.412633
PC46   -493.826558 -20796.103502  18582.555425    385.948723
PC60   7267.879471  41503.612516   1540.949519     -0.993569
PE01  13114.321842  24500.893833  10206.570652  -1055.013757
PE02 -13172.215707 -24403.883633 -10323.728151    201.456885
PE03 -10059.982708 -13965.205587  24081.270158   -403.334192
PE04  22725.110610  -3687.720216 -18600.280979   -718.547865
PE05   8689.209976 -23671.322750  15505.270165   -301.117056
PE07 -22192.949246  19474.680576   2036.937707   -506.310432
PE08 -22728.493895   4163.705786  18494.844134   6040.702412
PE09  22023.702114 -19698.193124  -1884.842486   5751.415867
PE11  20077.712320  -8155.711232 -20152.600076   6267.478982
PE12  28844.692749   5549.225482  -3549.094360   5335.147016
PE13 -20400.494862   7903.260498  19953.950595    412.777211
PE14  25331.430804 -13283.719541    556.661342  -1344.523289
PE15 -28880.880598  -5421.550360   3614.342041    827.199623
PE18 -25636.748828   1844.125654 -12458.051542  -1469.974694
PE19   7929.701292  15559.781794 -23896.411031    214.342550
PE21   1560.960724  28465.115343  -7990.805370   -650.808189
PE24  11824.353662 -15328.860769  22366.822986   -766.096175
PE25  -1431.911304 -28412.391359   8158.162871   -527.336236
PE26    771.842329  16878.671072  24314.397330   2099.601324
PE27 -11344.048747  16067.576882 -22125.970594     21.000598
PE30 -17561.409672  -6665.143169 -22883.392982   3147.244049
PE31  17510.716108   5715.016862  23175.543023   -478.691257
PE33  20334.149622  15553.767246  14860.307975   -466.069095
PE36    -71.839073 -16557.495165 -24525.710092    434.967449
PG01 -22072.306580 -14714.129553  -3668.073145    752.368304
PG02   3229.405092  17157.431718  20669.019209   -581.154676
PG03 -12765.141705 -15034.817736  17760.405362    -94.347115
PG04 -15815.998866  -7084.941539  20146.673141   -183.059621
PG05   4054.388951  25984.155892  -3082.821233    -34.842618
PG06 -10681.985750  10827.676987  21845.202151     -1.374041
PG07 -24269.800102  -5214.008873  -9759.285771     73.233857
PG08  -9320.665733 -11868.807847 -21860.739531    -11.860469
PG09 -22789.001126   3774.519906  13067.082246   -326.727518
PG10  11908.574166 -15025.864387 -18152.724429    -70.480059
PG11 -19034.524175 -11433.809821 -14762.309108    -12.861427
PG12   9630.830167  19437.800812  15183.004184     -6.960392
PG13  -1840.849979  16565.184496 -20786.291175    102.024011
PG14 -13283.499910  13371.838037 -18720.327652     99.027512
PG15  11381.458029  11431.785465 -21471.461901   -166.545665
PG16    400.040624 -26270.569360  -1489.257982   -286.439970
PG17 -22041.125698  14540.498952   3260.041982    401.305382
PG18  22998.589498   2469.766546 -13110.171505    349.003868
PG19 -18047.549635  16391.260824  10139.739564    -32.944343
PG20  15594.665127  -2283.154067 -21433.196799    524.494970
PG21 -18534.820632 -15969.309995 -10134.399806     99.080103
PG22 -10960.467130 -21857.371216  10780.572678   -670.841593
PG23  14926.757131  -3372.021564 -21727.078513    118.306889
PG24  19748.629143  15896.875444  -8800.555747      1.777489
PG25  14953.497484   4962.230598  21161.653987     88.932540
PG26   5062.579536 -24103.845706   9534.479271     50.965450
PG27   3981.243293 -17864.414099 -19269.216492    -84.476960
PG28 -12232.640279  16278.869807 -16595.160323    609.504434
PG29  22939.839604  -2283.324564  13185.021744   -302.736281
PG30 -18278.797122   5342.513542 -18555.636932   -391.068627
PG31   8728.303488 -12606.621763  21621.802472   -102.617536
PG32  20558.927471 -16259.263028   3780.134208     20.034182
PJ01 -31829.001659  26726.400434  12004.383160   -343.863462
PJ02 -20035.036309  23591.614068 -24143.120475      2.516003
PJ03 -30449.929729  26344.789517  17536.196360     -1.142865
PJ07 -25400.624330  33665.901714     -3.220524     -0.050542
PR01 -12150.960777  22420.492682    -68.833092     75.640973
PR02    136.727358  17364.163540 -18669.323832    468.693997
PR03  11289.999637   2017.752324 -22736.407610     31.485892
PR04  15761.683829 -14362.942673 -13965.207577     75.683663
PR05  11559.467671 -22571.326874   2652.383157     67.236567
PR07 -11663.546509  -1319.518572  22689.329687    -42.519238
PR08 -15853.765795  14327.491532  14001.057320    -57.623073
PR09 -11965.098057 -22418.416160   2607.315433    -19.639722
PR11 -11065.189800   2539.948268 -22835.831161      2.775447
PR12    588.925313  17959.700180 -18096.118329    208.451002
PR13  11770.033056  22412.258133  -3180.126883    -51.318689
PR14  16099.894910  13655.784325  14316.755666     61.451830
PR15  11005.562599  -2830.721745  22851.169222    105.173568
PR16  -1451.724350 -18443.327764  17466.346575    -11.849132
PR17  23408.543086   4180.977785   9288.276995    403.691036
PR18  24058.400749  -3361.068440  -7666.047395     68.074187
PR19  12925.801007  -8629.862013 -20220.581545   -133.726107
PR20  -8758.737343  -9939.126779 -21796.409173    -44.086110
PR21 -23860.130154  -3722.303116  -8180.991342   -190.755760
PR22 -23726.485440   3701.333685   8742.647164   -100.064786
PR24   9584.718593  10165.052778  21364.541821     33.121258
EOF
